CHUANG XIN 26 (CX-26)   
1 69972U 26158A   26194.51442212 -.00000212  00000+0 -21871-4 0  9997
2 69972  49.9860 287.5119 0004887 294.2352  65.8050 14.25122238   462
CZ-10B DEB              
1 69973U 26158B   26194.58513205  .00000099  00000+0  11013-3 0  9993
2 69973  49.9846 287.2193 0005701 305.8104  54.2279 14.24885997   479
CZ-10B R/B              
1 69974U 26158C   26194.56253036  .00000143  00000+0  55130-4 0  9994
2 69974  49.9631 286.3519 0197944 194.8878 164.6170 14.64293949   480
STARLINK-38024          
1 69975U 26159A   26198.25002315 -.02018302  10962-2 -65600-2 0  9990
2 69975  97.2860  37.0149 0001662  76.9288  19.6150 15.90866447  2182
STARLINK-37993          
1 69976U 26159B   26198.25002315 -.01981532  10611-2 -63759-2 0  9998
2 69976  97.2859  37.0155 0001717  77.3709  20.8690 15.91060799  2182
STARLINK-37995          
1 69977U 26159C   26198.25002315 -.01964573  10462-2 -62582-2 0  9992
2 69977  97.2861  37.0163 0001605  77.2104  22.7898 15.91256417  2184
STARLINK-38057          
1 69978U 26159D   26198.25002315 -.01944160  10278-2 -61337-2 0  9995
2 69978  97.2860  37.0169 0001607  76.6185  25.2514 15.91443642  2185
STARLINK-38063          
1 69979U 26159E   26198.25002315 -.01928492  10143-2 -60260-2 0  9991
2 69979  97.2859  37.0179 0001614  76.5180  27.2498 15.91630186  2181
STARLINK-38093          
1 69980U 26159F   26198.25002315 -.01917646  10055-2 -59356-2 0  9998
2 69980  97.2860  37.0184 0001596  80.5845  25.1033 15.91814175  2187
STARLINK-38050          
1 69981U 26159G   26198.25002315 -.01897866  98794-3 -58205-2 0  9999
2 69981  97.2862  37.0191 0001622  76.0923  31.3821 15.91991445  2185
STARLINK-38065          
1 69982U 26159H   26198.25002315 -.01909913  10017-2 -58012-2 0  9994
2 69982  97.2862  37.0208 0001699  73.8954  35.4188 15.92180517  2180
STARLINK-38077          
1 69983U 26159J   26198.25002315 -.01877217  97146-3 -56518-2 0  9994
2 69983  97.2861  37.0207 0001607  75.6879  35.4331 15.92347948  2187
STARLINK-38068          
1 69984U 26159K   26198.25002315 -.01858997  95554-3 -55480-2 0  9997
2 69984  97.2860  37.0213 0001596  77.7177  35.0259 15.92516144  2186
STARLINK-38089          
1 69985U 26159L   26198.25002315 -.01848052  94670-3 -54669-2 0  9995
2 69985  97.2859  37.0221 0001676  75.4582  39.1308 15.92685276  2181
STARLINK-38073          
1 69986U 26159M   26198.25002315 -.01836187  93698-3 -53846-2 0  9997
2 69986  97.2861  37.0227 0001649  76.3512  39.9476 15.92852299  2189
STARLINK-38099          
1 69987U 26159N   26198.25002315 -.01835302  93775-3 -53356-2 0  9998
2 69987  97.2860  37.0241 0001610  75.3864  42.5417 15.93019407  2184
STARLINK-38064          
1 69988U 26159P   26198.25002315 -.01800497  90770-3 -51496-2 0  9991
2 69988  97.2862  37.0245 0001659  72.7710  48.5686 15.93329033  2188
STARLINK-38080          
1 69989U 26159Q   26198.25002315 -.01810473  91562-3 -52213-2 0  9995
2 69989  97.2861  37.0241 0001668  70.8528  48.8152 15.93170839  2189
STARLINK-38070          
1 69990U 26159R   26198.25002315 -.01789041  89840-3 -50749-2 0  9991
2 69990  97.2860  37.0253 0001596  70.9864  52.0860 15.93485495  2187
STARLINK-38042          
1 69991U 26159S   26198.25002315 -.01776495  88806-3 -49995-2 0  9993
2 69991  97.2859  37.0258 0001623  73.9289  50.6315 15.93635377  2181
STARLINK-38071          
1 69992U 26159T   26198.25002315 -.01758778  87293-3 -49116-2 0  9992
2 69992  97.2858  37.0271 0001639  74.9988  51.0985 15.93780721  2182
STARLINK-38082          
1 69993U 26159U   26198.25002315 -.01755846  87161-3 -48641-2 0  9992
2 69993  97.2858  37.0277 0001592  73.5679  54.0746 15.93934071  2186
STARLINK-38090          
1 69994U 26159V   26198.25002315 -.01734637  85331-3 -47697-2 0  9995
2 69994  97.2858  37.0284 0001613  77.6303  51.5984 15.94072843  2185
STARLINK-38084          
1 69995U 26159W   26198.25002315 -.01736086  85602-3 -47351-2 0  9994
2 69995  97.2858  37.0291 0001611  72.2029  58.7089 15.94227463  2183
STARLINK-38085          
1 69996U 26159X   26198.25002315 -.01721091  84350-3 -46600-2 0  9990
2 69996  97.2859  37.0300 0001536  77.3757  54.9881 15.94364544  2186
STARLINK-38091          
1 69997U 26159Y   26198.25002315 -.01707438  83229-3 -45887-2 0  9990
2 69997  97.2859  37.0305 0001651  69.8110  64.1954 15.94503558  2183
STARLINK-38086          
1 69998U 26159Z   26198.25002315 -.01703708  83015-3 -45442-2 0  9997
2 69998  97.2859  37.0312 0001532  75.4290  60.1076 15.94646416  2184
