OBJECT_NAME,OBJECT_ID,EPOCH,MEAN_MOTION,ECCENTRICITY,INCLINATION,RA_OF_ASC_NODE,ARG_OF_PERICENTER,MEAN_ANOMALY,EPHEMERIS_TYPE,CLASSIFICATION_TYPE,NORAD_CAT_ID,ELEMENT_SET_NO,REV_AT_EPOCH,BSTAR,MEAN_MOTION_DOT,MEAN_MOTION_DDOT
CHUANG XIN 26 (CX-26),2026-158A,2026-07-13T12:20:46.071168,14.25122238,.0004887,49.9860,287.5119,294.2352,65.8050,0,U,69972,999,46,-.21871415E-4,-.212E-5,0
CZ-10B DEB,2026-158B,2026-07-13T14:02:35.409120,14.24885997,.0005701,49.9846,287.2193,305.8104,54.2279,0,U,69973,999,47,.11013E-3,.99E-6,0
CZ-10B R/B,2026-158C,2026-07-13T13:30:02.623104,14.64293949,.01979448,49.9631,286.3519,194.8878,164.6170,0,U,69974,999,48,.55130296E-4,.143E-5,0
STARLINK-38024,2026-159A,2026-07-17T06:00:02.000160,15.90866447,.00016621,97.2860,37.0149,76.9288,19.6150,0,U,69975,999,218,-.6560017E-2,-.2018302E-1,.10962203E-2
STARLINK-37993,2026-159B,2026-07-17T06:00:02.000160,15.91060799,.00017174,97.2859,37.0155,77.3709,20.8690,0,U,69976,999,218,-.63758876E-2,-.1981532E-1,.10610738E-2
STARLINK-37995,2026-159C,2026-07-17T06:00:02.000160,15.91256417,.00016055,97.2861,37.0163,77.2104,22.7898,0,U,69977,999,218,-.62582405E-2,-.1964573E-1,.10461667E-2
STARLINK-38057,2026-159D,2026-07-17T06:00:02.000160,15.91443642,.00016077,97.2860,37.0169,76.6185,25.2514,0,U,69978,999,218,-.61336631E-2,-.194416E-1,.1027822E-2
STARLINK-38063,2026-159E,2026-07-17T06:00:02.000160,15.91630186,.00016145,97.2859,37.0179,76.5180,27.2498,0,U,69979,999,218,-.60259819E-2,-.1928492E-1,.10142732E-2
STARLINK-38093,2026-159F,2026-07-17T06:00:02.000160,15.91814175,.00015963,97.2860,37.0184,80.5845,25.1033,0,U,69980,999,218,-.59355729E-2,-.1917646E-1,.10054943E-2
STARLINK-38050,2026-159G,2026-07-17T06:00:02.000160,15.91991445,.00016223,97.2862,37.0191,76.0923,31.3821,0,U,69981,999,218,-.58204641E-2,-.1897866E-1,.98794337E-3
STARLINK-38065,2026-159H,2026-07-17T06:00:02.000160,15.92180517,.00016993,97.2862,37.0208,73.8954,35.4188,0,U,69982,999,218,-.58011671E-2,-.1909913E-1,.10016668E-2
STARLINK-38077,2026-159J,2026-07-17T06:00:02.000160,15.92347948,.00016077,97.2861,37.0207,75.6879,35.4331,0,U,69983,999,218,-.5651843E-2,-.1877217E-1,.97146042E-3
STARLINK-38068,2026-159K,2026-07-17T06:00:02.000160,15.92516144,.00015964,97.2860,37.0213,77.7177,35.0259,0,U,69984,999,218,-.55480121E-2,-.1858997E-1,.95554297E-3
STARLINK-38089,2026-159L,2026-07-17T06:00:02.000160,15.92685276,.00016764,97.2859,37.0221,75.4582,39.1308,0,U,69985,999,218,-.54669013E-2,-.1848052E-1,.94669515E-3
STARLINK-38073,2026-159M,2026-07-17T06:00:02.000160,15.92852299,.0001649,97.2861,37.0227,76.3512,39.9476,0,U,69986,999,218,-.53846449E-2,-.1836187E-1,.93697501E-3
STARLINK-38099,2026-159N,2026-07-17T06:00:02.000160,15.93019407,.00016106,97.2860,37.0241,75.3864,42.5417,0,U,69987,999,218,-.53356017E-2,-.1835302E-1,.93774804E-3
STARLINK-38064,2026-159P,2026-07-17T06:00:02.000160,15.93329033,.0001659,97.2862,37.0245,72.7710,48.5686,0,U,69988,999,218,-.51495734E-2,-.1800497E-1,.90770131E-3
STARLINK-38080,2026-159Q,2026-07-17T06:00:02.000160,15.93170839,.00016686,97.2861,37.0241,70.8528,48.8152,0,U,69989,999,218,-.52212617E-2,-.1810473E-1,.91561619E-3
STARLINK-38070,2026-159R,2026-07-17T06:00:02.000160,15.93485495,.00015969,97.2860,37.0253,70.9864,52.0860,0,U,69990,999,218,-.50748869E-2,-.1789041E-1,.89840447E-3
STARLINK-38042,2026-159S,2026-07-17T06:00:02.000160,15.93635377,.00016233,97.2859,37.0258,73.9289,50.6315,0,U,69991,999,218,-.49995489E-2,-.1776495E-1,.88806129E-3
STARLINK-38071,2026-159T,2026-07-17T06:00:02.000160,15.93780721,.00016398,97.2858,37.0271,74.9988,51.0985,0,U,69992,999,218,-.49115807E-2,-.1758778E-1,.87292865E-3
STARLINK-38082,2026-159U,2026-07-17T06:00:02.000160,15.93934071,.00015928,97.2858,37.0277,73.5679,54.0746,0,U,69993,999,218,-.48640681E-2,-.1755846E-1,.87160629E-3
STARLINK-38090,2026-159V,2026-07-17T06:00:02.000160,15.94072843,.00016134,97.2858,37.0284,77.6303,51.5984,0,U,69994,999,218,-.47697146E-2,-.1734637E-1,.853313E-3
STARLINK-38084,2026-159W,2026-07-17T06:00:02.000160,15.94227463,.00016115,97.2858,37.0291,72.2029,58.7089,0,U,69995,999,218,-.47350758E-2,-.1736086E-1,.85602337E-3
STARLINK-38085,2026-159X,2026-07-17T06:00:02.000160,15.94364544,.00015364,97.2859,37.0300,77.3757,54.9881,0,U,69996,999,218,-.46599629E-2,-.1721091E-1,.84350191E-3
STARLINK-38091,2026-159Y,2026-07-17T06:00:02.000160,15.94503558,.0001651,97.2859,37.0305,69.8110,64.1954,0,U,69997,999,218,-.4588679E-2,-.1707438E-1,.83229186E-3
STARLINK-38086,2026-159Z,2026-07-17T06:00:02.000160,15.94646416,.00015329,97.2859,37.0312,75.4290,60.1076,0,U,69998,999,218,-.45441723E-2,-.1703708E-1,.83014869E-3
